COSMOS 2058             
1 20465U 90010A   26170.12082776  .00003322  00000+0  19158-3 0  9992
2 20465  82.4689 307.4477 0008969 353.0541   7.0564 15.12026756957560
SL-14 R/B               
1 20466U 90010B   26170.05626896  .00000275  00000+0  30336-4 0  9998
2 20466  82.5015 172.1895 0018935 329.9119  30.1007 14.83647182943511
SL-14 R/B               
1 20511U 90018B   26170.23916738  .00000314  00000+0  36297-4 0  9990
2 20511  82.5211 128.1897 0017545 115.4971 244.8061 14.82217252937622
HST                     
1 20580U 90037B   26170.09908245  .00005359  00000+0  16756-3 0  9996
2 20580  28.4721  67.5085 0001723 162.4358 197.6298 15.30765373788863
SL-16 R/B               
1 20625U 90046B   26170.21028662  .00000040  00000+0  45291-4 0  9995
2 20625  71.0001  84.6992 0013183 158.7306 201.4368 14.15027179862759
COSMOS 2084             
1 20663U 90055A   26169.78772279  .00001618  00000+0  12382-3 0  9993
2 20663  62.7899 350.6279 0005630 281.5674  78.4795 15.06121601951546
SL-6 R/B(2)             
1 20666U 90055D   26170.24339199  .00001133  00000+0  94958-4 0  9991
2 20666  62.7822 268.3794 0040986   5.4434 354.7102 15.04008665953469
SL-8 R/B                
1 20775U 90078B   26169.73715621  .00020718  00000+0  58436-3 0  9997
2 20775  82.9021 160.2451 0350503  33.2602 329.0117 14.92384085824355
SL-8 R/B                
1 21088U 91006B   26170.26085954  .00000064  00000+0  48158-4 0  9999
2 21088  82.9425  94.4911 0023753 109.0655  43.6233 13.77506026778050
OKEAN-3                 
1 21397U 91039A   26170.26574018  .00002375  00000+0  16372-3 0  9991
2 21397  82.5162 238.3660 0013864 350.4014   9.6946 15.05333702880318
COSMOS 2151             
1 21422U 91042A   26170.26045659  .00001066  00000+0  82409-4 0  9999
2 21422  82.4960 345.6798 0013779  77.7863 282.4903 15.00443132878429
SL-14 R/B               
1 21423U 91042B   26170.24612406  .00000292  00000+0  33927-4 0  9999
2 21423  82.4928 124.9647 0015417 267.4009  92.5441 14.81903558868119
ERS-1                   
1 21574U 91050A   26170.31954595  .00000132  00000+0  57163-4 0  9992
2 21574  98.7797 191.0697 0030725 260.3837  99.3878 14.39518150830357
ARIANE 40 R/B           
1 21610U 91050F   26170.12930338  .00000202  00000+0  72938-4 0  9996
2 21610  98.1875 218.4705 0004301 117.5389 242.6239 14.42958044833620
INTERCOSMOS 25          
1 21819U 91086A   26170.25774515  .00000790  00000+0  15749-3 0  9991
2 21819  82.6052 248.5569 1483966 257.9232  85.2261 12.12198506508992
SL-8 R/B                
1 21876U 92008B   26170.29722759  .00000125  00000+0  11241-3 0  9991
2 21876  82.9260 192.2187 0033972 208.6701 162.3828 13.75977478723393
SL-8 R/B                
1 21938U 92020B   26170.24756450  .00000078  00000+0  64891-4 0  9991
2 21938  82.9306  78.3272 0029595  16.9203 100.2469 13.75549081715090
USA 81                  
1 21949U 92023A   26170.23082472  .00000143  00000+0  45627-4 0  9990
2 21949  85.0074  72.8280 0002747  82.8227 277.3278 14.32398717109323
COSMOS 2219             
1 22219U 92076A   26170.24201099  .00000311  00000+0  18774-3 0  9997
2 22219  71.0581 165.7759 0016694  40.8409 319.3962 14.14100408732739
SL-16 R/B               
1 22220U 92076B   26170.24046707  .00000251  00000+0  14870-3 0  9998
2 22220  71.0007 334.4555 0014724 295.9538 237.3358 14.16873284736217
COSMOS 2221             
1 22236U 92080A   26170.27862485  .00001069  00000+0  91562-4 0  9994
2 22236  82.5029 181.7608 0013449 204.8296 155.2281 14.96537621795982
SL-16 R/B               
1 22285U 92093B   26170.22118862 -.00000235  00000+0 -96162-4 0  9997
2 22285  71.0196 151.1212 0003848 184.6773 175.4315 14.15460330727523
COSMOS 2228             
1 22286U 92094A   26170.22578462  .00001527  00000+0  12818-3 0  9993
2 22286  82.5175 140.0901 0016710 325.1016  34.9109 14.97592829791254
SL-16 R/B               
1 22566U 93016B   26170.27215838  .00000160  00000+0  10635-3 0  9996
2 22566  71.0085   1.8275 0010091 180.5605 179.5508 14.15315197716548
COSMOS 2242             
1 22626U 93024A   26170.05246729  .00001274  00000+0  10852-3 0  9999
2 22626  82.5179 169.7582 0015191 329.6698  30.3643 14.96908216795556
SL-16 R/B               
1 22803U 93059B   26170.25441958 -.00000169  00000+0 -59645-4 0  9995
2 22803  70.9886 156.9442 0015283  50.4375 309.8096 14.17248074693921
ARIANE 40 R/B           
1 22830U 93061H   26170.16058469  .00000133  00000+0  64512-4 0  9997
2 22830  98.4819 236.9767 0010332 350.4120   9.6865 14.32908649708634
COSMOS 2278             
1 23087U 94023A   26170.15642612  .00000029  00000+0  39816-4 0  9992
2 23087  71.0550 322.8043 0010603 241.1099 118.8960 14.14398636659152
SL-16 R/B               
1 23088U 94023B   26170.22800914  .00000158  00000+0  10602-3 0  9996
2 23088  70.9992 217.6455 0002626 185.4582 174.6513 14.15026416660456
SL-16 R/B               
1 23343U 94074B   26170.03949692  .00000295  00000+0  46097-4 0  9992
2 23343  97.6989 196.6834 0005200 245.7135 167.4064 14.79503648702235
