OBJECT_NAME,OBJECT_ID,EPOCH,MEAN_MOTION,ECCENTRICITY,INCLINATION,RA_OF_ASC_NODE,ARG_OF_PERICENTER,MEAN_ANOMALY,EPHEMERIS_TYPE,CLASSIFICATION_TYPE,NORAD_CAT_ID,ELEMENT_SET_NO,REV_AT_EPOCH,BSTAR,MEAN_MOTION_DOT,MEAN_MOTION_DDOT
COSMOS 2058,1990-010A,2026-06-19T02:53:59.518464,15.12026756,.00089694,82.4689,307.4477,353.0541,7.0564,0,U,20465,999,95756,.19158434E-3,.3322E-4,0
SL-14 R/B,1990-010B,2026-06-19T01:21:01.638144,14.83647182,.00189355,82.5015,172.1895,329.9119,30.1007,0,U,20466,999,94351,.30336389E-4,.275E-5,0
SL-14 R/B,1990-018B,2026-06-19T05:44:24.061632,14.82217252,.00175452,82.5211,128.1897,115.4971,244.8061,0,U,20511,999,93762,.36296892E-4,.314E-5,0
HST,1990-037B,2026-06-19T02:22:40.723680,15.30765373,.00017236,28.4721,67.5085,162.4358,197.6298,0,U,20580,999,78886,.1675625E-3,.5359E-4,0
SL-16 R/B,1990-046B,2026-06-19T05:02:48.763968,14.15027179,.00131831,71.0001,84.6992,158.7306,201.4368,0,U,20625,999,86275,.45290822E-4,.4E-6,0
COSMOS 2084,1990-055A,2026-06-18T18:54:19.249056,15.06121601,.00056304,62.7899,350.6279,281.5674,78.4795,0,U,20663,999,95154,.12381726E-3,.1618E-4,0
SL-6 R/B(2),1990-055D,2026-06-19T05:50:29.067936,15.04008665,.00409865,62.7822,268.3794,5.4434,354.7102,0,U,20666,999,95346,.94958074E-4,.1133E-4,0
SL-8 R/B,1990-078B,2026-06-18T17:41:30.296544,14.92384085,.03505031,82.9021,160.2451,33.2602,329.0117,0,U,20775,999,82435,.58435756E-3,.20718E-3,0
SL-8 R/B,1991-006B,2026-06-19T06:15:38.264256,13.77506026,.00237536,82.9425,94.4911,109.0655,43.6233,0,U,21088,999,77805,.48158434E-4,.64E-6,0
OKEAN-3,1991-039A,2026-06-19T06:22:39.951552,15.05333702,.00138649,82.5162,238.3660,350.4014,9.6946,0,U,21397,999,88031,.16371843E-3,.2375E-4,0
COSMOS 2151,1991-042A,2026-06-19T06:15:03.449376,15.00443132,.00137796,82.4960,345.6798,77.7863,282.4903,0,U,21422,999,87842,.82409109E-4,.1066E-4,0
SL-14 R/B,1991-042B,2026-06-19T05:54:25.118784,14.81903558,.00154177,82.4928,124.9647,267.4009,92.5441,0,U,21423,999,86811,.33926992E-4,.292E-5,0
ERS-1,1991-050A,2026-06-19T07:40:08.770080,14.39518150,.00307252,98.7797,191.0697,260.3837,99.3878,0,U,21574,999,83035,.5716254E-4,.132E-5,0
ARIANE 40 R/B,1991-050F,2026-06-19T03:06:11.812032,14.42958044,.00043018,98.1875,218.4705,117.5389,242.6239,0,U,21610,999,83362,.72937773E-4,.202E-5,0
INTERCOSMOS 25,1991-086A,2026-06-19T06:11:09.180960,12.12198506,.14839661,82.6052,248.5569,257.9232,85.2261,0,U,21819,999,50899,.15749007E-3,.79E-5,0
SL-8 R/B,1992-008B,2026-06-19T07:08:00.463776,13.75977478,.00339726,82.9260,192.2187,208.6701,162.3828,0,U,21876,999,72339,.11241224E-3,.125E-5,0
SL-8 R/B,1992-020B,2026-06-19T05:56:29.572800,13.75549081,.00295956,82.9306,78.3272,16.9203,100.2469,0,U,21938,999,71509,.64890584E-4,.78E-6,0
USA 81,1992-023A,2026-06-19T05:32:23.255808,14.32398717,.00027472,85.0074,72.8280,82.8227,277.3278,0,U,21949,999,10932,.45626703E-4,.143E-5,0
COSMOS 2219,1992-076A,2026-06-19T05:48:29.749536,14.14100408,.00166942,71.0581,165.7759,40.8409,319.3962,0,U,22219,999,73273,.18773711E-3,.311E-5,0
SL-16 R/B,1992-076B,2026-06-19T05:46:16.354848,14.16873284,.00147242,71.0007,334.4555,295.9538,237.3358,0,U,22220,999,73621,.1487027E-3,.251E-5,0
COSMOS 2221,1992-080A,2026-06-19T06:41:13.187040,14.96537621,.00134499,82.5029,181.7608,204.8296,155.2281,0,U,22236,999,79598,.91561698E-4,.1069E-4,0
SL-16 R/B,1992-093B,2026-06-19T05:18:30.696768,14.15460330,.00038489,71.0196,151.1212,184.6773,175.4315,0,U,22285,999,72752,-.96161537E-4,-.235E-5,0
COSMOS 2228,1992-094A,2026-06-19T05:25:07.791168,14.97592829,.00167105,82.5175,140.0901,325.1016,34.9109,0,U,22286,999,79125,.1281841E-3,.1527E-4,0
SL-16 R/B,1993-016B,2026-06-19T06:31:54.484032,14.15315197,.00100916,71.0085,1.8275,180.5605,179.5508,0,U,22566,999,71654,.10635135E-3,.16E-5,0
COSMOS 2242,1993-024A,2026-06-19T01:15:33.173856,14.96908216,.00151918,82.5179,169.7582,329.6698,30.3643,0,U,22626,999,79555,.10852202E-3,.1274E-4,0
SL-16 R/B,1993-059B,2026-06-19T06:06:21.851712,14.17248074,.00152835,70.9886,156.9442,50.4375,309.8096,0,U,22803,999,69392,-.59645324E-4,-.169E-5,0
ARIANE 40 R/B,1993-061H,2026-06-19T03:51:14.517216,14.32908649,.00103328,98.4819,236.9767,350.4120,9.6865,0,U,22830,999,70863,.64512006E-4,.133E-5,0
COSMOS 2278,1994-023A,2026-06-19T03:45:15.216768,14.14398636,.00106034,71.0550,322.8043,241.1099,118.8960,0,U,23087,999,65915,.39816277E-4,.29E-6,0
SL-16 R/B,1994-023B,2026-06-19T05:28:19.989696,14.15026416,.00026261,70.9992,217.6455,185.4582,174.6513,0,U,23088,999,66045,.10601645E-3,.158E-5,0
SL-16 R/B,1994-074B,2026-06-19T00:56:52.533888,14.79503648,.00052,97.6989,196.6834,245.7135,167.4064,0,U,23343,999,70223,.46097255E-4,.295E-5,0
